NORAD_CAT_ID,OBJECT_NAME,OBJECT_TYPE,EPOCH,MEAN_MOTION,ECCENTRICITY,INCLINATION,RA_OF_ASC_NODE,ARG_OF_PERICENTER,MEAN_ANOMALY,BSTAR,MEAN_MOTION_DOT,MEAN_MOTION_DDOT,TLE_LINE0,TLE_LINE1,TLE_LINE2,SEMIMAJOR_AXIS,PERIOD,APOGEE,PERIGEE,DECAYED
53149.0,STARLINK-4021,PAYLOAD,2023-07-27 01:34:54,15.0884335,0.0001037,53.2164,138.5722,96.6646,263.4464,8.121e-05,1.005e-05,0.0,0 STARLINK-4021,1 53149U 22083T   23208.06590748  .00001005  00000-0  81210-4 0  9993,2 53149  53.2164 138.5722 0001037  96.6646 263.4464 15.08843350 57571,6917.87,95.437,540.453,539.018,0.0
53149.0,STARLINK-4021,PAYLOAD,2023-07-27 04:45:40,15.08851182,0.0001069,53.2163,137.9769,90.9889,269.1226,0.00017339,2.474e-05,0.0,0 STARLINK-4021,1 53149U 22083T   23208.19837976  .00002474  00000-0  17339-3 0  9995,2 53149  53.2163 137.9769 0001069  90.9889 269.1226 15.08851182 57598,6917.846,95.437,540.451,538.972,0.0
53149.0,STARLINK-4021,PAYLOAD,2023-07-27 14:18:00,15.08836335,0.0001547,53.2138,136.1917,94.0818,266.0351,1.4918e-05,-5.1e-07,0.0,0 STARLINK-4021,1 53149U 22083T   23208.59583500 -.00000051  00000-0  14918-4 0  9991,2 53149  53.2138 136.1917 0001547  94.0818 266.0351 15.08836335 57659,6917.892,95.438,540.827,538.686,0.0
53149.0,STARLINK-4021,PAYLOAD,2023-07-27 20:39:33,15.08813267,0.0002254,53.213,135.005,73.8171,286.3069,0.00013504,1.86e-05,0.0,0 STARLINK-4021,1 53149U 22083T   23208.86080953  .00001860  00000-0  13504-3 0  9992,2 53149  53.2130 135.0050 0002254  73.8171 286.3069 15.08813267 57065,6917.962,95.439,541.386,538.268,0.0
53149.0,STARLINK-4021,PAYLOAD,2023-07-28 01:25:42,15.08828809,8.45e-05,53.2167,134.1109,91.4131,268.6958,-9.8804e-05,-1.859e-05,0.0,0 STARLINK-4021,1 53149U 22083T   23209.05952459 -.00001859  00000-0 -98804-4 0  9990,2 53149  53.2167 134.1109 0000845  91.4131 268.6958 15.08828809 57727,6917.915,95.438,540.364,539.195,0.0
53149.0,STARLINK-4021,PAYLOAD,2023-07-29 01:16:27,15.08858393,0.0001065,53.2167,129.6513,83.0177,277.0937,9.1421e-05,1.168e-05,0.0,0 STARLINK-4021,1 53149U 22083T   23210.05310138  .00001168  00000-0  91421-4 0  9993,2 53149  53.2167 129.6513 0001065  83.0177 277.0937 15.08858393 57875,6917.824,95.436,540.426,538.952,0.0
53149.0,STARLINK-4021,PAYLOAD,2023-07-29 18:45:43,15.08831156,9.78e-05,53.217,126.381,72.3887,287.7211,0.00016833,2.392e-05,0.0,0 STARLINK-4021,1 53149U 22083T   23210.78175555  .00002392  00000-0  16833-3 0  9998,2 53149  53.2170 126.3810 0000978  72.3887 287.7211 15.08831156 57987,6917.907,95.438,540.449,539.096,0.0
53149.0,STARLINK-4021,PAYLOAD,2023-07-31 00:58:02,15.08849609,0.0001084,53.2166,120.7307,87.4744,272.6372,-3.7574e-05,-8.86e-06,0.0,0 STARLINK-4021,1 53149U 22083T   23212.04031160 -.00000886  00000-0 -37574-4 0  9996,2 53149  53.2166 120.7307 0001084  87.4744 272.6372 15.08849609 58174,6917.851,95.437,540.466,538.966,0.0
53149.0,STARLINK-4021,PAYLOAD,2023-07-31 18:27:18,15.088282,0.0001208,53.2168,117.4588,93.7765,266.3366,-6.3283e-05,-1.294e-05,0.0,0 STARLINK-4021,1 53149U 22083T   23212.76896643 -.00001294  00000-0 -63283-4 0  9990,2 53149  53.2168 117.4588 0001208  93.7765 266.3366 15.08828200 58280,6917.916,95.438,540.617,538.946,0.0
53149.0,STARLINK-4021,PAYLOAD,2023-08-01 00:48:50,15.08834072,0.0001188,53.2159,116.2723,88.5065,271.6063,1.5165e-05,-4.7e-07,0.0,0 STARLINK-4021,1 53149U 22083T   23213.03392211 -.00000047  00000-0  15165-4 0  9993,2 53149  53.2159 116.2723 0001188  88.5065 271.6063 15.08834072 58322,6917.899,95.438,540.585,538.942,0.0
53149.0,STARLINK-4021,PAYLOAD,2023-08-02 02:15:00,15.08840864,0.0001187,53.2166,111.5115,98.2441,261.8686,7.6149e-05,9.24e-06,0.0,0 STARLINK-4021,1 53149U 22083T   23214.09376098  .00000924  00000-0  76149-4 0  9997,2 53149  53.2166 111.5115 0001187  98.2441 261.8686 15.08840864 58483,6917.878,95.438,540.564,538.922,0.0
53149.0,STARLINK-4021,PAYLOAD,2023-08-03 00:30:24,15.08849955,0.0001474,53.2169,107.3476,96.9071,263.2089,0.00018521,2.662e-05,0.0,0 STARLINK-4021,1 53149U 22083T   23215.02111525  .00002662  00000-0  18521-3 0  9993,2 53149  53.2169 107.3476 0001474  96.9071 263.2089 15.08849955 58621,6917.85,95.437,540.735,538.695,0.0
53149.0,STARLINK-4021,PAYLOAD,2023-08-04 00:21:12,15.08842437,0.0001277,53.2174,102.8862,90.2266,269.8873,6.7052e-05,7.79e-06,0.0,0 STARLINK-4021,1 53149U 22083T   23216.01472541  .00000779  00000-0  67052-4 0  9992,2 53149  53.2174 102.8862 0001277  90.2266 269.8873 15.08842437 58777,6917.873,95.437,540.621,538.855,0.0
53149.0,STARLINK-4021,PAYLOAD,2023-08-05 19:16:36,15.08848427,0.0001178,53.2153,94.8604,101.0171,259.0954,0.00022553,3.304e-05,0.0,0 STARLINK-4021,1 53149U 22083T   23217.80319966  .00003304  00000-0  22553-3 0  9994,2 53149  53.2153  94.8604 0001178 101.0171 259.0954 15.08848427 59041,6917.855,95.437,540.535,538.905,0.0
53149.0,STARLINK-4021,PAYLOAD,2023-08-06 01:38:08,15.08859676,0.0001194,53.2157,93.6693,102.6109,257.5017,0.00038177,5.796e-05,0.0,0 STARLINK-4021,1 53149U 22083T   23218.06815292  .00005796  00000-0  38177-3 0  9992,2 53149  53.2157  93.6693 0001194 102.6109 257.5017 15.08859676 59081,6917.82,95.436,540.511,538.859,0.0
53149.0,STARLINK-4021,PAYLOAD,2023-08-06 15:56:38,15.08823044,0.000113,53.2158,90.996,33.0094,327.0968,-0.00024844,-4.238e-05,0.0,0 STARLINK-4021,1 53149U 22083T   23218.66433372 -.00004238  00000-0 -24844-3 0  9991,2 53149  53.2158  90.9960 0001130  33.0094 327.0968 15.08823044 59177,6917.932,95.439,540.579,539.015,0.0
53149.0,STARLINK-4021,PAYLOAD,2023-08-07 07:50:29,15.08831195,0.0001093,53.2158,88.0205,101.6316,258.4798,-7.5627e-05,-1.491e-05,0.0,0 STARLINK-4021,1 53149U 22083T   23219.32673222 -.00001491  00000-0 -75627-4 0  9999,2 53149  53.2158  88.0205 0001093 101.6316 258.4798 15.08831195 59279,6917.907,95.438,540.528,539.016,0.0
53149.0,STARLINK-4021,PAYLOAD,2023-08-07 18:58:10,15.08850723,9.92e-05,53.2159,85.9385,102.2387,257.8716,-0.00016866,-2.972e-05,0.0,0 STARLINK-4021,1 53149U 22083T   23219.79040446 -.00002972  00000-0 -16866-3 0  9990,2 53149  53.2159  85.9385 0000992 102.2387 257.8716 15.08850723 59346,6917.848,95.437,540.399,539.026,0.0
53149.0,STARLINK-4021,PAYLOAD,2023-08-08 17:13:35,15.08845977,0.0001051,53.2159,81.7759,107.6851,252.4256,0.00044239,6.761e-05,0.0,0 STARLINK-4021,1 53149U 22083T   23220.71777110  .00006761  00000-0  44239-3 0  9992,2 53149  53.2159  81.7759 0001051 107.6851 252.4256 15.08845977 59487,6917.862,95.437,540.454,539.0,0.0
53149.0,STARLINK-4021,PAYLOAD,2023-08-08 21:59:44,15.08857261,0.0001024,53.2158,80.884,108.835,251.2753,0.00053517,8.244e-05,0.0,0 STARLINK-4021,1 53149U 22083T   23220.91648636  .00008244  00000-0  53517-3 0  9991,2 53149  53.2158  80.8840 0001024 108.8350 251.2753 15.08857261 59516,6917.828,95.436,540.401,538.984,0.0
53149.0,STARLINK-4021,PAYLOAD,2023-08-09 17:04:21,15.08847675,9.27e-05,53.2156,77.3156,87.6239,272.4859,3.9564e-05,3.42e-06,0.0,0 STARLINK-4021,1 53149U 22083T   23221.71136097  .00000342  00000-0  39564-4 0  9991,2 53149  53.2156  77.3156 0000927  87.6239 272.4859 15.08847675 59639,6917.857,95.437,540.363,539.081,0.0
53149.0,STARLINK-4021,PAYLOAD,2023-08-10 07:22:49,15.0884147,7.92e-05,53.2155,74.6398,92.7727,267.3356,-7.5322e-05,-1.486e-05,0.0,0 STARLINK-4021,1 53149U 22083T   23222.30752116 -.00001486  00000-0 -75322-4 0  9997,2 53149  53.2155  74.6398 0000792  92.7727 267.3356 15.08841470 59727,6917.876,95.437,540.289,539.193,0.0
53149.0,STARLINK-4021,PAYLOAD,2023-08-10 16:55:09,15.08828145,0.0001352,53.2154,72.8549,82.814,277.3006,-0.00026936,-4.571e-05,0.0,0 STARLINK-4021,1 53149U 22083T   23222.70496861 -.00004571  00000-0 -26936-3 0  9997,2 53149  53.2154  72.8549 0001352  82.8140 277.3006 15.08828145 59789,6917.917,95.438,540.717,538.846,0.0
53149.0,STARLINK-4021,PAYLOAD,2023-08-11 18:21:19,15.08837447,0.0001058,53.2161,68.0967,75.4891,284.6219,9.5378e-05,1.23e-05,0.0,0 STARLINK-4021,1 53149U 22083T   23223.76481167  .00001230  00000-0  95378-4 0  9991,2 53149  53.2161  68.0967 0001058  75.4891 284.6219 15.08837447 59942,6917.888,95.438,540.485,539.021,0.0
53149.0,STARLINK-4021,PAYLOAD,2023-08-13 18:02:54,15.0883599,0.0001186,53.2158,59.1757,80.0304,280.0822,0.00021194,3.086e-05,0.0,0 STARLINK-4021,1 53149U 22083T   23225.75201747  .00003086  00000-0  21194-3 0  9991,2 53149  53.2158  59.1757 0001186  80.0304 280.0822 15.08835990 60245,6917.893,95.438,540.578,538.937,0.0
53149.0,STARLINK-4021,PAYLOAD,2023-08-14 19:29:04,15.08842583,0.0001171,53.2166,54.4176,88.7848,271.3278,7.5765e-05,9.18e-06,0.0,0 STARLINK-4021,1 53149U 22083T   23226.81185290  .00000918  00000-0  75765-4 0  9998,2 53149  53.2166  54.4176 0001171  88.7848 271.3278 15.08842583 60401,6917.872,95.437,540.548,538.927,0.0
53149.0,STARLINK-4021,PAYLOAD,2023-08-16 11:13:42,15.08838447,0.0001182,53.215,46.9866,106.7563,253.3559,0.00013379,1.842e-05,0.0,0 STARLINK-4021,1 53149U 22083T   23228.46785326  .00001842  00000-0  13379-3 0  9996,2 53149  53.2150  46.9866 0001182 106.7563 253.3559 15.08838447 60656,6917.885,95.438,540.568,538.932,0.0
53149.0,STARLINK-4021,PAYLOAD,2023-08-16 19:10:38,15.08832658,0.0001001,53.2166,45.4984,100.6165,259.494,7.0505e-05,8.34e-06,0.0,0 STARLINK-4021,1 53149U 22083T   23228.79905939  .00000834  00000-0  70505-4 0  9991,2 53149  53.2166  45.4984 0001001 100.6165 259.4940 15.08832658 60704,6917.903,95.438,540.46,539.075,0.0
53149.0,STARLINK-4021,PAYLOAD,2023-08-18 06:09:08,15.08808231,0.0001807,53.2169,38.9557,88.9039,271.216,0.00063223,9.78e-05,0.0,0 STARLINK-4021,1 53149U 22083T   23230.25635211  .00009780  00000-0  63223-3 0  9995,2 53149  53.2169  38.9557 0001807  88.9039 271.2160 15.08808231 60922,6917.977,95.44,541.093,538.592,0.0
53149.0,STARLINK-4021,PAYLOAD,2023-08-18 17:16:49,15.08838216,0.0001153,53.2172,36.8742,86.9979,273.1145,0.0001205,1.63e-05,0.0,0 STARLINK-4021,1 53149U 22083T   23230.72001817  .00001630  00000-0  12050-3 0  9994,2 53149  53.2172  36.8742 0001153  86.9979 273.1145 15.08838216 60991,6917.886,95.438,540.548,538.953,0.0
